GLOBALSTAR M084         
1 38040U 11080A   24324.41110816 -.00000082  00000+0  12181-3 0  9998
2 38040  52.0021 327.1092 0000306  16.3737 131.0191 12.62270710596179
GLOBALSTAR M080         
1 38041U 11080B   24325.08012220 -.00000079  00000+0  13860-3 0  9994
2 38041  52.0072 326.6069 0000230 317.4124 110.9668 12.62268730596528
GLOBALSTAR M082         
1 38042U 11080C   24325.17268278 -.00000078  00000+0  14264-3 0  9999
2 38042  52.0080 281.7482 0001034  73.0075 356.4904 12.62269722597276
GLOBALSTAR M092         
1 38043U 11080D   24324.68872380 -.00000087  00000+0  95871-4 0  9994
2 38043  52.0110  13.5862 0000369  92.3961  56.9670 12.62269535595498
GLOBALSTAR M090         
1 38044U 11080E   24325.12954837 -.00000078  00000+0  14124-3 0  9994
2 38044  51.9886 275.9560 0000790  72.3540  41.5439 12.62270833597257
GLOBALSTAR M086         
1 38045U 11080F   24325.14700726 -.00000074  00000+0  16795-3 0  9995
2 38045  51.9900 276.4373 0000410 185.6932 248.1087 12.62270358597262
GLOBALSTAR M097         
1 39072U 13005A   24324.99922676 -.00000083  00000+0  11564-3 0  9996
2 39072  52.0028 191.2247 0001010  94.4295 265.6687 12.62267476544478
GLOBALSTAR M093         
1 39073U 13005B   24324.97242853 -.00000099  00000+0  25845-4 0  9992
2 39073  51.9789 184.9412 0001147  95.8713 264.2284 12.62276432544464
